OBJECT_NAME,OBJECT_ID,EPOCH,MEAN_MOTION,ECCENTRICITY,INCLINATION,RA_OF_ASC_NODE,ARG_OF_PERICENTER,MEAN_ANOMALY,EPHEMERIS_TYPE,CLASSIFICATION_TYPE,NORAD_CAT_ID,ELEMENT_SET_NO,REV_AT_EPOCH,BSTAR,MEAN_MOTION_DOT,MEAN_MOTION_DDOT
HST,1990-037B,2026-06-13T05:33:13.905216,15.30704754,.0001932,28.4712,107.6084,101.0971,258.9842,0,U,20580,999,78796,.19317E-3,.6133E-4,0
POLAR,1996-013A,2026-06-13T04:27:37.754496,1.29846128,.64665534,79.8486,227.0990,209.2175,89.5922,0,U,23802,999,14480,0,.143E-5,0
SWAS,1998-071A,2026-06-13T21:38:04.625952,15.09609744,.0008737,69.8961,235.9926,263.5115,96.5054,0,U,25560,999,49677,.21600055E-3,.3378E-4,0
CXO,1999-040B,2026-06-15T17:32:59.918784,0.37804362,.7842889,56.1776,116.6293,310.3072,0.0447,0,U,25867,999,1731,0,.579E-5,0
XMM-NEWTON,1999-066A,2026-06-14T08:34:59.652768,0.50124916,.46758429,64.5048,283.0226,64.9764,0.1205,0,U,25989,999,2299,0,.64E-6,0
TERRA,1999-068A,2026-06-13T22:23:53.268288,14.61100771,.0001328,97.9457,214.6084,201.6119,206.0690,0,U,25994,999,40913,.8192911E-4,.358E-5,0
CLUSTER II-FM7 (SAMBA),2000-041A,2026-06-14T21:49:34.992192,0.44879327,.90502639,149.9112,50.5199,267.6271,359.8755,0,U,26410,999,2029,0,.8926E-4,0
CLUSTER II-FM8 (TANGO),2000-045B,2026-06-12T22:27:38.392992,0.44415453,.90555409,150.1475,51.1959,268.1324,3.0125,0,U,26464,999,2029,0,.6615E-4,0
ODIN,2001-007A,2026-06-13T20:30:49.788288,15.74753031,.00066859,97.3842,205.5864,146.6594,213.5093,0,U,26702,999,38887,.12713438E-2,.190366E-2,0
TIMED,2001-055B,2026-06-13T22:19:58.893600,14.95289073,.00009404,74.0674,241.5756,342.1036,18.0116,0,U,26998,999,33033,.10649595E-3,.1134E-4,0
CORIOLIS,2003-001A,2026-06-13T22:56:20.046912,14.19943995,.00132096,98.7125,171.8899,218.5680,141.4554,0,U,27640,999,21376,.61924569E-4,.88E-6,0
SORCE,2003-004A,2026-06-13T18:03:29.717856,15.03697081,.00169172,39.9912,281.2748,23.3384,336.8175,0,U,27651,999,27138,.21434021E-3,.2846E-4,0
MOST,2003-031D,2026-06-13T18:17:03.321600,14.21321845,.00086906,98.7045,172.5357,261.6529,98.3663,0,U,27843,999,19022,.49190337E-4,.63E-6,0
SCISAT 1,2003-036A,2026-06-13T09:02:04.581024,14.81444219,.0008628,73.9285,178.9144,248.3864,111.6394,0,U,27858,999,23088,.64217071E-4,.466E-5,0
SWIFT,2004-047A,2026-06-13T19:34:29.486784,15.68026338,.00017386,20.5521,210.9068,231.5121,128.5169,0,U,28485,999,18633,.41135031E-3,.48901E-3,0
HINODE (SOLAR-B),2006-041A,2026-06-13T21:57:39.425760,14.68619083,.0016119,98.0549,181.1158,301.0776,58.8847,0,U,29479,999,5439,.11871507E-3,.642E-5,0
SHIJIAN-6 02A (SJ-6 02A),2006-046A,2026-06-13T22:12:25.005888,15.16907033,.00042245,97.6365,205.9666,133.5890,226.5694,0,U,29505,999,7177,.32306835E-3,.63E-4,0
SHIJIAN-6 02B (SJ-6 02B),2006-046B,2026-06-13T22:44:09.297312,15.01368968,.00152006,97.7163,194.0257,69.8182,290.4675,0,U,29506,999,7025,.92225981E-4,.113E-4,0
FGRST (GLAST),2008-029A,2026-06-13T13:28:57.999360,15.23933052,.0007579,25.5812,229.6566,284.3079,75.6618,0,U,33053,999,99528,.10986E-3,.3071E-4,0
SDO,2010-005A,2026-06-13T07:21:38.625984,1.00270114,.00016732,34.6434,86.4016,51.3791,132.2019,0,U,36395,999,6002,0,-.88E-6,0
CRYOSAT 2,2010-013A,2026-06-13T21:52:05.788704,14.51898108,.00021814,92.0352,276.5053,88.1942,271.9515,0,U,36508,999,85760,.4144927E-4,.17E-5,0
X-SAT,2011-015C,2026-06-13T22:13:15.568896,14.25205381,.00142037,98.3501,142.1041,358.1262,1.9863,0,U,37389,999,78721,.6572254E-4,.113E-5,0
GCOM-W1 (SHIZUKU),2012-025A,2026-06-13T19:17:39.709248,14.57121871,.00018113,98.2022,105.4108,77.2775,336.4931,0,U,38337,999,74854,.10503574E-3,.428E-5,0
NUSTAR,2012-031A,2026-06-14T00:00:02.000160,15.08772287,.0006948,6.0268,58.0257,58.8516,310.7262,0,U,38358,999,130,.58208691E-3,.10294E-3,0
NEOSSAT,2013-009D,2026-06-13T22:25:18.995232,14.35825389,.00098158,98.4175,345.0443,254.6915,105.3187,0,U,39089,999,69627,.62313675E-4,.138E-5,0
BRITE-AUSTRIA,2013-009F,2026-06-13T22:25:40.154592,14.36540938,.00090395,98.3993,344.4507,247.4517,112.5714,0,U,39091,999,69658,.6864362E-4,.159E-5,0
IRIS,2013-033A,2026-06-13T19:08:52.224288,14.85879320,.00237882,97.9332,4.0856,333.2772,26.7216,0,U,39197,999,69987,.12061586E-3,.1E-4,0
HISAKI (SPRINT-A),2013-049A,2026-06-13T21:18:54.525312,13.55544473,.01368819,29.7190,236.7863,350.1099,9.6792,0,U,39253,999,63097,.101301E-3,.139E-5,0
CASSIOPE,2013-055A,2026-06-13T19:34:51.555072,15.24889463,.02939472,80.9157,70.8148,73.7607,289.5747,0,U,39265,999,66715,.53049149E-3,.4843E-3,-.447786E-6
STSAT-3,2013-066G,2026-06-13T21:59:57.434208,15.02740794,.00111587,97.6211,134.8569,53.3974,306.8276,0,U,39422,999,68371,.28396708E-3,.3739E-4,0
SWARM B,2013-067A,2026-06-13T22:13:21.525312,15.28533418,.00033582,87.7433,343.3079,88.1801,271.9833,0,U,39451,999,68274,.1181533E-3,.3313E-4,0
